[{"OBJECT_NAME":"YAOGAN-10","OBJECT_ID":"2010-038A","EPOCH":"2026-03-09T23:33:06.516288","MEAN_MOTION":14.85018151,"ECCENTRICITY":0.00017039,"INCLINATION":97.9088,"RA_OF_ASC_NODE":93.1524,"ARG_OF_PERICENTER":88.5228,"MEAN_ANOMALY":358.1418,"EPHEMERIS_TYPE":0,"CLASSIFICATION_TYPE":"U","NORAD_CAT_ID":36834,"ELEMENT_SET_NO":999,"REV_AT_EPOCH":84248,"BSTAR":0.0003191762,"MEAN_MOTION_DOT":2.67e-5,"MEAN_MOTION_DDOT":0},{"OBJECT_NAME":"FENGYUN 1C DEB","OBJECT_ID":"1999-025DYB","EPOCH":"2026-03-04T22:10:33.898944","MEAN_MOTION":14.66370182,"ECCENTRICITY":0.01040693,"INCLINATION":99.4227,"RA_OF_ASC_NODE":231.8194,"ARG_OF_PERICENTER":177.2125,"MEAN_ANOMALY":182.9676,"EPHEMERIS_TYPE":0,"CLASSIFICATION_TYPE":"U","NORAD_CAT_ID":36657,"ELEMENT_SET_NO":999,"REV_AT_EPOCH":67460,"BSTAR":0.0012550322,"MEAN_MOTION_DOT":7.456e-5,"MEAN_MOTION_DDOT":0}]
